TDRS 3                  
1 19548U 88091B   17245.37267679 -.00000303  00000-0  00000-0 0  9996
2 19548  14.4461   7.1685 0032616 309.3819  96.8955  1.00280667 93225
SKYNET 4C               
1 20776U 90079A   17244.00422253  .00000121  00000-0  00000-0 0  9997
2 20776  13.8581  15.3428 0002928 150.8129 209.2524  1.00269656 98725
TDRS 5                  
1 21639U 91054B   17245.53160437  .00000082  00000-0  00000-0 0  9998
2 21639  14.4216  20.5902 0019952 348.8049 356.2027  1.00277275 95528
TDRS 6                  
1 22314U 93003B   17245.22615400 -.00000297  00000-0  00000-0 0  9995
2 22314  13.9576  23.5436 0003365 271.4649  82.0448  1.00278256 90251
ASTRA 1D                
1 23331U 94070A   17245.43510976 -.00000276  00000-0  00000-0 0  9992
2 23331   7.6757  48.7138 0003298 109.2832 267.9209  1.00272889 84109
BRASILSAT B2            
1 23536U 95016A   17245.34004244 -.00000288  00000-0  00000-0 0  9999
2 23536   7.2977  50.5854 0002069 119.4904 226.0372  1.00271752 82204
AMSC 1                  
1 23553U 95019A   17245.44674139 -.00000122  00000-0  00000-0 0  9995
2 23553  10.1761  39.1887 0003782 154.0144 206.1104  1.00272594 81992
TDRS 7                  
1 23613U 95035B   17245.39768125 -.00000205  00000-0  00000-0 0  9995
2 23613  15.0003  14.2920 0026413   2.5157 192.9792  1.00274337 81061
ECHOSTAR 1              
1 23754U 95073A   17245.55046010 -.00000255  00000-0  00000-0 0  9998
2 23754   0.9717  89.8480 0002957  66.2894 306.6659  1.00272466 20232
INMARSAT 3-F1           
1 23839U 96020A   17245.59282049 -.00000005  00000-0  00000-0 0  9996
2 23839   4.1266  67.1373 0005507  99.8555  92.8365  1.00273234 78135
ASTRA 1F                
1 23842U 96021A   17245.63805369  .00000125  00000-0  00000-0 0  9994
2 23842   0.0857 299.3489 0004305 233.5577  83.0489  1.00274104 20169
MSAT M1                 
1 23846U 96022A   17245.48362091 -.00000093  00000-0  00000-0 0  9997
2 23846   7.8638  48.2224 0004797 122.2436 237.9567  1.00272235 78237
INMARSAT 3-F2           
1 24307U 96053A   17245.30948694 -.00000138  00000-0  00000+0 0  9993
2 24307   2.7792  77.3370 0003955  87.7365 272.5038  1.00272222 76840
AMC-1 (GE-1)            
1 24315U 96054A   17244.64847621  .00000045  00000-0  00000-0 0  9994
2 24315   1.7228  84.7341 0002881  70.2133 290.3577  1.00271258 14137
AFRICASAT-2 (MEASAT-2)  
1 24653U 96063B   17245.27938535 -.00000236  00000-0  00000-0 0  9997
2 24653   7.5982  49.1361 0009903 175.4467   5.6097  1.00273681 76279
INMARSAT 3-F3           
1 24674U 96070A   17245.48243810  .00000024  00000-0  00000+0 0  9999
2 24674   3.5789  71.3898 0005169  91.8129 170.4051  1.00270407 75780
AMC-2 (GE-2)            
1 24713U 97002A   17245.50254948 -.00000224  00000-0  00000+0 0  9999
2 24713   4.4743  65.5286 0005040  90.0328 282.3521  1.00273640 26143
INTELSAT 26 (IS-26)     
1 24732U 97007A   17245.00442355 -.00000021  00000-0  00000-0 0  9997
2 24732   7.5745  49.4667 0002722 125.6776 233.5878  1.00271854 40548
GALAXY 25 (G-25)        
1 24812U 97026A   17245.30964083 -.00000176  00000-0  00000-0 0  9998
2 24812   0.0168 232.9095 0003406 287.9345 199.1723  1.00271325 74177
ABS-3                   
1 24901U 97042A   17245.58799330 -.00000088  00000-0  00000-0 0  9998
2 24901   5.0253  62.8214 0002252 147.9018  58.2054  1.00187446 73361
INTELSAT 5 (IS-5)       
1 24916U 97046A   17244.81390918 -.00000155  00000-0  00000-0 0  9997
2 24916   3.6918  70.7134 0002643 112.5121 247.8311  1.00271874 73434
AMC-3 (GE-3)            
1 24936U 97050A   17245.54560022 -.00000273  00000-0  00000-0 0  9991
2 24936   0.5384  92.2067 0002900  60.0237 314.0610  1.00271358 20252
NSS-5                   
1 24957U 97053A   17245.52823910  .00000095  00000-0  00000-0 0  9994
2 24957   3.9830  68.9105 0003390  81.0745  72.5659  1.00271068 72997
ECHOSTAR 3              
1 25004U 97059A   17244.68845167 -.00000040  00000-0  00000-0 0  9999
2 25004   2.3127  74.8113 0004141 259.1719 101.2510  0.98874949 72867
JCSAT-1B                
1 25067U 97075A   17244.50532072 -.00000127  00000-0  00000-0 0  9991
2 25067   5.6906  58.3212 0021082 112.7195 186.2979  0.98654798 75154
ASTRA 1G                
1 25071U 97076A   17245.16219668  .00000093  00000-0  00000-0 0  9994
2 25071   2.4749  78.1284 0003268  85.1331 287.7344  1.00274592 72377
BRASILSAT B3            
1 25152U 98006A   17245.41578823 -.00000295  00000-0  00000-0 0  9992
2 25152   4.1688  67.9208 0002303  99.7324 260.5903  1.00273185 11338
INMARSAT 3-F5           
1 25153U 98006B   17245.42802157 -.00000301  00000-0  00000+0 0  9991
2 25153   2.7246  74.0385 0005099  82.3456 285.4594  1.00275614 71705
NSS-806                 
1 25239U 98014A   17245.51226604 -.00000293  00000-0  00000-0 0  9993
2 25239   0.1046 305.2397 0004405 211.6674 321.8324  1.00269775 15122
CHINASAT 5A (ZX 5A)     
1 25354U 98033A   17245.57132660 -.00000367  00000-0  00000-0 0  9998
2 25354   1.4044  86.5859 0002922 115.2688 111.2863  1.00273431 75051
THOR III                
1 25358U 98035A   17245.22676861 -.00000055  00000-0  00000-0 0  9996
2 25358   5.5531  58.6437 0001904 112.0928 248.1524  1.00272156 70663
INTELSAT 805 (IS-805)   
1 25371U 98037A   17245.48730012 -.00000045  00000-0  00000+0 0  9998
2 25371   0.1711  95.1828 0003208  70.6274 160.4407  1.00272347 70377
ASTRA 2A                
1 25462U 98050A   17245.47063184 -.00000373  00000-0  00000+0 0  9996
2 25462   0.0900 258.2122 0002548 252.4735 114.0341  1.00275080 69551
AFRISTAR                
1 25515U 98063A   17245.08799275  .00000111  00000-0  00000+0 0  9992
2 25515   3.4441  69.4768 0003947 108.1255 216.4607  1.00273419 68930
JCSAT-4A                
1 25630U 99006A   17245.47044287 -.00000216  00000-0  00000-0 0  9995
2 25630   2.4481  79.6545 0005088  88.1025 133.4295  1.00272294 18427
SKYNET 4E               
1 25639U 99009B   17245.10462581  .00000016  00000-0  00000+0 0  9994
2 25639  10.1982  27.9974 0002367 152.1969 204.9063  1.00275166 67822
ASIASAT 3S              
1 25657U 99013A   17245.63229221 -.00000249  00000-0  00000-0 0  9999
2 25657   2.6615  77.8942 0002316  66.5946 211.1687  1.00272363 67634
NIMIQ 1                 
1 25740U 99027A   17245.55532039 -.00000212  00000-0  00000-0 0  9992
2 25740   0.1070 279.9827 0002612 218.4270 316.8817  1.00272380 66916
ASTRA 1H                
1 25785U 99033A   17245.16094278  .00000125  00000-0  00000-0 0  9995
2 25785   3.9672  69.0639 0002635  81.8013 292.0465  1.00272536 19235
TELKOM 1                
1 25880U 99042A   17245.53569237 -.00000349  00000-0  00000-0 0  9993
2 25880   0.0141 120.9345 0009868 146.0580  14.5765  1.00225089 66209
ABS-7                   
1 25894U 99046A   17245.47247785 -.00000376  00000-0  00000-0 0  9996
2 25894   0.0342 251.0445 0001980 278.5507  98.4082  1.00270378 64944
ABS-6                   
1 25924U 99053A   17244.61116548 -.00000133  00000-0  00000+0 0  9995
2 25924   0.0593 287.7118 0002656 211.0837 221.2270  1.00272548 65686
TELSTAR 12 (ORION 2)    
1 25949U 99059A   17245.50789868 -.00000076  00000-0  00000-0 0  9995
2 25949   1.0930  88.5376 0003190  67.2882 259.6514  1.00272864 65347
AMC-4 (GE-4)            
1 25954U 99060A   17245.42542749  .00000073  00000-0  00000+0 0  9994
2 25954   0.0481 287.7068 0003079 232.1139 200.1951  1.00272693 65300
GALAXY 11 (G-11)        
1 26038U 99071A   17245.63805696  .00000123  00000-0  00000-0 0  9993
2 26038   0.0329  74.8339 0000259  63.1784 118.5621  1.00272160 64928
SUPERBIRD-B2            
1 26095U 00012A   17245.48730012 -.00000107  00000-0  00000-0 0  9998
2 26095   0.5602  93.7123 0002784  73.9730 151.5105  1.00271876 13006
ASIASTAR                
1 26107U 00016A   17245.61216753 -.00000347  00000-0  00000-0 0  9998
2 26107   1.8280  81.7530 0004513  78.1851 147.3904  1.00275072 63746
EUTELSAT 16C            
1 26243U 00019A   17245.10925715  .00000079  00000-0  00000-0 0  9992
2 26243   4.4067  65.8969 0002680 107.7625 221.6646  1.00275585 63556
EUTELSAT 80A            
1 26369U 00028A   17245.30465979 -.00000077  00000-0  00000-0 0  9993
2 26369   1.1707  85.3867 0003855  91.3780 271.7874  1.00065122 63259
TDRS 8                  
1 26388U 00034A   17244.95873345 -.00000239  00000-0  00000-0 0  9991
2 26388   7.6173  55.1723 0005409 209.7354 150.3965  1.00280272 62991
ECHOSTAR 6              
1 26402U 00038A   17245.61067970 -.00000160  00000-0  00000-0 0  9998
2 26402   4.3261  66.6945 0003465 102.9011 295.9991  1.00272136 62767
INTELSAT 9 (IS-9)       
1 26451U 00043A   17245.36597183 -.00000229  00000-0  00000+0 0  9999
2 26451   3.6783  70.9339 0002831  94.1390 278.8913  1.00272085 62661
BRASILSAT B4            
1 26469U 00046A   17245.54255904 -.00000183  00000-0  00000-0 0  9993
2 26469   1.8078  84.6202 0002677  73.0527 287.5325  1.00274233 62788
NILESAT 102             
1 26470U 00046B   17245.29542824 -.00000073  00000-0  00000-0 0  9995
2 26470   1.8355  83.3590 0004579  94.4254 263.1827  1.00272538 13005
ASTRA 2B                
1 26494U 00054A   17245.36262613 -.00000167  00000-0  00000+0 0  9996
2 26494   2.3647  78.7787 0004802  70.9264 302.9248  1.00273235 62059
AMC-7 (GE-7)            
1 26495U 00054B   17245.42563623  .00000074  00000-0  00000+0 0  9995
2 26495   0.0081  83.4520 0001566 111.2267 165.3204  1.00270906 62078
NSS-11 (AAP-1)          
1 26554U 00059A   17245.43972941 -.00000359  00000-0  00000-0 0  9992
2 26554   0.0566 291.2347 0002682 228.6422  88.3408  1.00272239  9122
N-SAT-110 (JCSAT-110)   
1 26559U 00060A   17245.63087427 -.00000365  00000-0  00000-0 0  9994
2 26559   0.0119 112.9733 0002067 333.5642 232.6046  1.00272749  9090
AMC-6 (GE-6)            
1 26580U 00067A   17245.55046010 -.00000229  00000-0  00000-0 0  9998
2 26580   0.0576 292.3134 0003072 231.3934 293.3385  1.00270844 61794
